STARLINK-1281_new
1 15370C 20019L   21326.15070488 -.00021258  00000-0 -14246-2 0  3261
2 15370  53.0536   8.0588 0001269  67.7960 207.2780 15.06413153    11
STARLINK-1281_old
1 25370C 20019L   21325.11908973  .00001728  00000-0  11577-3 0  3257
2 25370  53.0542  12.6901 0001350  69.7954   7.6727 15.06402882    14
